ONEWEB-0249             
1 48967U 21060A   25117.50072222  .00000067  00000+0  14282-3 0  9991
2 48967  87.9019 311.6441 0001707  92.2195 267.9131 13.16592532184912
ONEWEB-0250             
1 48968U 21060B   25117.47505284  .00000058  00000+0  10143-3 0  9999
2 48968  87.9019 310.7659 0000981 125.3964 234.7263 13.25710639185132
ONEWEB-0252             
1 48970U 21060D   25117.45638647  .00000100  00000+0  22858-3 0  9994
2 48970  87.9022 311.6460 0001958  79.6412 280.4940 13.16596285184951
ONEWEB-0253             
1 48971U 21060E   25117.52129213  .00000071  00000+0  15126-3 0  9994
2 48971  87.9019 311.6387 0001507  84.8333 275.2970 13.16596398184899
ONEWEB-0254             
1 48972U 21060F   25117.53079971  .00000086  00000+0  19139-3 0  9995
2 48972  87.9021 311.6198 0001285  92.2460 267.8818 13.16592498184895
ONEWEB-0255             
1 48973U 21060G   25117.49280005 -.00000019  00000+0 -82024-4 0  9995
2 48973  87.9019 311.6610 0001413  89.3536 270.7757 13.16595714184963
ONEWEB-0256             
1 48974U 21060H   25117.51893955  .00000088  00000+0  19605-3 0  9991
2 48974  87.9023 311.6687 0001860  85.3194 274.8150 13.16593180184939
ONEWEB-0257             
1 48975U 21060J   25117.47538234 -.00000301  00000+0 -81986-3 0  9994
2 48975  87.9021 311.6395 0001554  83.5006 276.6302 13.16593598184882
